{
  "norad_id": 66760,
  "name": "TRANSPORTER-15 OBJECT CY",
  "history": [
    {
      "epoch": "2026-03-28T17:42:26.877312Z",
      "apogee_km": 508.42782163206994,
      "perigee_km": 506.29483196039564,
      "latitude_deg": -4.696599559298753e-05,
      "longitude_deg": 70.99666163809786,
      "height_km": 510.99323962302924,
      "semi_major_axis_km": 6885.4983267962325,
      "eccentricity": 0.00015489,
      "inclination_deg": 97.4236,
      "raan_deg": 162.7626,
      "arg_perigee_deg": 120.7158,
      "mean_anomaly_deg": 239.4229,
      "mean_motion_rev_day": 15.19496473
    },
    {
      "epoch": "2026-03-29T04:46:14.823552Z",
      "apogee_km": 508.3917557560817,
      "perigee_km": 506.27653901960366,
      "latitude_deg": 3.579220144954872e-05,
      "longitude_deg": -94.95427942871495,
      "height_km": 510.957067304477,
      "semi_major_axis_km": 6885.471147387842,
      "eccentricity": 0.0001536,
      "inclination_deg": 97.4236,
      "raan_deg": 163.2158,
      "arg_perigee_deg": 120.4349,
      "mean_anomaly_deg": 239.7038,
      "mean_motion_rev_day": 15.1950547
    },
    {
      "epoch": "2026-03-30T04:28:39.852768Z",
      "apogee_km": 508.3883628014637,
      "perigee_km": 506.1974190101773,
      "latitude_deg": -4.6697798170924865e-05,
      "longitude_deg": -90.56066646301375,
      "height_km": 510.9412744084555,
      "semi_major_axis_km": 6885.42989090582,
      "eccentricity": 0.0001591,
      "inclination_deg": 97.4235,
      "raan_deg": 164.1873,
      "arg_perigee_deg": 120.8187,
      "mean_anomaly_deg": 239.3204,
      "mean_motion_rev_day": 15.19519127
    },
    {
      "epoch": "2026-03-30T04:28:39.853632Z",
      "apogee_km": 508.3887070729579,
      "perigee_km": 506.1970747386822,
      "latitude_deg": -5.1612876812749664e-05,
      "longitude_deg": -90.56066943598523,
      "height_km": 510.941450827289,
      "semi_major_axis_km": 6885.42989090582,
      "eccentricity": 0.00015915,
      "inclination_deg": 97.4235,
      "raan_deg": 164.1873,
      "arg_perigee_deg": 120.8187,
      "mean_anomaly_deg": 239.3204,
      "mean_motion_rev_day": 15.19519127
    },
    {
      "epoch": "2026-03-30T18:42:06.450912Z",
      "apogee_km": 508.37351206867606,
      "perigee_km": 506.15365891991314,
      "latitude_deg": -3.031232840861901e-06,
      "longitude_deg": 56.077141780519504,
      "height_km": 510.9143887010452,
      "semi_major_axis_km": 6885.400585494294,
      "eccentricity": 0.0001612,
      "inclination_deg": 97.4234,
      "raan_deg": 164.7701,
      "arg_perigee_deg": 120.5211,
      "mean_anomaly_deg": 239.6183,
      "mean_motion_rev_day": 15.19528828
    },
    {
      "epoch": "2026-03-31T04:11:04.045632Z",
      "apogee_km": 508.3649807502361,
      "perigee_km": 506.1361807903404,
      "latitude_deg": -8.941704121535422e-06,
      "longitude_deg": -86.16387417536203,
      "height_km": 510.90960400184525,
      "semi_major_axis_km": 6885.387580770288,
      "eccentricity": 0.00016185,
      "inclination_deg": 97.4234,
      "raan_deg": 165.1585,
      "arg_perigee_deg": 120.8763,
      "mean_anomaly_deg": 239.2631,
      "mean_motion_rev_day": 15.19533133
    },
    {
      "epoch": "2026-04-01T10:12:45.640800Z",
      "apogee_km": 508.3341589703268,
      "perigee_km": 506.07301312186974,
      "latitude_deg": 2.6790477720184096e-05,
      "longitude_deg": -176.59020553257795,
      "height_km": 510.8676700659327,
      "semi_major_axis_km": 6885.340586046098,
      "eccentricity": 0.0001642,
      "inclination_deg": 97.4231,
      "raan_deg": 166.3887,
      "arg_perigee_deg": 120.686,
      "mean_anomaly_deg": 239.4537,
      "mean_motion_rev_day": 15.1954869
    },
    {
      "epoch": "2026-04-02T16:14:26.047104Z",
      "apogee_km": 508.31195734538414,
      "perigee_km": 505.9811511565995,
      "latitude_deg": -5.548642611643539e-06,
      "longitude_deg": 92.98863858969573,
      "height_km": 510.81474077111653,
      "semi_major_axis_km": 6885.283554250991,
      "eccentricity": 0.00016926,
      "inclination_deg": 97.4227,
      "raan_deg": 167.6191,
      "arg_perigee_deg": 119.9103,
      "mean_anomaly_deg": 240.23,
      "mean_motion_rev_day": 15.1956757
    },
    {
      "epoch": "2026-04-03T17:31:36.325056Z",
      "apogee_km": 508.2712513774941,
      "perigee_km": 505.86418380822397,
      "latitude_deg": -1.4794958593992815e-05,
      "longitude_deg": 73.6933483045716,
      "height_km": 510.7270632033623,
      "semi_major_axis_km": 6885.204717592859,
      "eccentricity": 0.0001748,
      "inclination_deg": 97.4228,
      "raan_deg": 168.6551,
      "arg_perigee_deg": 118.3966,
      "mean_anomaly_deg": 241.7445,
      "mean_motion_rev_day": 15.19593669
    },
    {
      "epoch": "2026-04-04T17:13:56.184096Z",
      "apogee_km": 508.2382490899554,
      "perigee_km": 505.79264294113,
      "latitude_deg": 2.1076666121045028e-05,
      "longitude_deg": 78.10834598936168,
      "height_km": 510.67486282631916,
      "semi_major_axis_km": 6885.152446015542,
      "eccentricity": 0.0001776,
      "inclination_deg": 97.4225,
      "raan_deg": 169.6264,
      "arg_perigee_deg": 117.9148,
      "mean_anomaly_deg": 242.2267,
      "mean_motion_rev_day": 15.19610974
    },
    {
      "epoch": "2026-04-05T04:17:41.172000Z",
      "apogee_km": 508.2092948743157,
      "perigee_km": 505.7833869929709,
      "latitude_deg": -3.21022985012121e-05,
      "longitude_deg": -87.830117902871,
      "height_km": 510.65143673946534,
      "semi_major_axis_km": 6885.133340933643,
      "eccentricity": 0.00017617,
      "inclination_deg": 97.4223,
      "raan_deg": 170.0797,
      "arg_perigee_deg": 117.928,
      "mean_anomaly_deg": 242.2133,
      "mean_motion_rev_day": 15.19617299
    },
    {
      "epoch": "2026-04-05T18:31:04.486944Z",
      "apogee_km": 508.2181574999795,
      "perigee_km": 505.72437128661477,
      "latitude_deg": -7.0408733532755974e-06,
      "longitude_deg": 58.821808459976175,
      "height_km": 510.72781654817317,
      "semi_major_axis_km": 6885.108264393297,
      "eccentricity": 0.0001811,
      "inclination_deg": 97.4213,
      "raan_deg": 170.6629,
      "arg_perigee_deg": 122.4725,
      "mean_anomaly_deg": 237.6685,
      "mean_motion_rev_day": 15.19625601
    },
    {
      "epoch": "2026-04-06T03:59:59.937216Z",
      "apogee_km": 508.18084785003884,
      "perigee_km": 505.73774028105254,
      "latitude_deg": -8.629260288063669e-06,
      "longitude_deg": -83.41034971488172,
      "height_km": 510.67721552493265,
      "semi_major_axis_km": 6885.096294065545,
      "eccentricity": 0.00017742,
      "inclination_deg": 97.4212,
      "raan_deg": 171.0512,
      "arg_perigee_deg": 121.0908,
      "mean_anomaly_deg": 239.0501,
      "mean_motion_rev_day": 15.19629564
    },
    {
      "epoch": "2026-04-07T17:55:40.591776Z",
      "apogee_km": 508.17700285628143,
      "perigee_km": 505.6309147097227,
      "latitude_deg": 4.4735859661481355e-05,
      "longitude_deg": 67.66639916187675,
      "height_km": 510.5713281233984,
      "semi_major_axis_km": 6885.040958783002,
      "eccentricity": 0.0001849,
      "inclination_deg": 97.4215,
      "raan_deg": 172.605,
      "arg_perigee_deg": 117.1274,
      "mean_anomaly_deg": 243.015,
      "mean_motion_rev_day": 15.19647884
    },
    {
      "epoch": "2026-04-08T11:18:41.161536Z",
      "apogee_km": 508.1968931539577,
      "perigee_km": 505.56667827743877,
      "latitude_deg": 8.865809220218591e-05,
      "longitude_deg": 166.91250264289468,
      "height_km": 510.5401095412531,
      "semi_major_axis_km": 6885.018785715698,
      "eccentricity": 0.00019101,
      "inclination_deg": 97.4214,
      "raan_deg": 173.3174,
      "arg_perigee_deg": 115.76,
      "mean_anomaly_deg": 244.3833,
      "mean_motion_rev_day": 15.19655225
    },
    {
      "epoch": "2026-04-09T11:00:57.875616Z",
      "apogee_km": 508.1938448249748,
      "perigee_km": 505.51365562572755,
      "latitude_deg": -6.295413459208714e-05,
      "longitude_deg": 171.34066222761143,
      "height_km": 510.5132479571037,
      "semi_major_axis_km": 6884.990750225351,
      "eccentricity": 0.00019464,
      "inclination_deg": 97.4214,
      "raan_deg": 174.2887,
      "arg_perigee_deg": 115.3026,
      "mean_anomaly_deg": 244.841,
      "mean_motion_rev_day": 15.19664507
    },
    {
      "epoch": "2026-04-10T10:43:14.068704Z",
      "apogee_km": 508.1836460430177,
      "perigee_km": 505.4627097807079,
      "latitude_deg": -6.19554614326231e-06,
      "longitude_deg": 175.77117189185347,
      "height_km": 510.47369269309377,
      "semi_major_axis_km": 6884.960177911863,
      "eccentricity": 0.0001976,
      "inclination_deg": 97.4214,
      "raan_deg": 175.2602,
      "arg_perigee_deg": 114.4842,
      "mean_anomaly_deg": 245.6599,
      "mean_motion_rev_day": 15.19674629
    },
    {
      "epoch": "2026-04-11T18:19:34.944096Z",
      "apogee_km": 508.1709951913781,
      "perigee_km": 505.4101392369248,
      "latitude_deg": 5.92716075322371e-05,
      "longitude_deg": 61.68127607180017,
      "height_km": 510.43158539813993,
      "semi_major_axis_km": 6884.927567214151,
      "eccentricity": 0.0002005,
      "inclination_deg": 97.4216,
      "raan_deg": 176.5553,
      "arg_perigee_deg": 113.6795,
      "mean_anomaly_deg": 246.4651,
      "mean_motion_rev_day": 15.19685426
    },
    {
      "epoch": "2026-04-12T22:46:17.101056Z",
      "apogee_km": 508.1699780808485,
      "perigee_km": 505.369198080818,
      "latitude_deg": 4.9828792223018575e-05,
      "longitude_deg": -4.997273987252494,
      "height_km": 510.40398676767194,
      "semi_major_axis_km": 6884.906588080833,
      "eccentricity": 0.0002034,
      "inclination_deg": 97.4214,
      "raan_deg": 177.7206,
      "arg_perigee_deg": 113.0293,
      "mean_anomaly_deg": 247.1157,
      "mean_motion_rev_day": 15.19692372
    },
    {
      "epoch": "2026-04-14T11:07:03.549792Z",
      "apogee_km": 508.15566133011725,
      "perigee_km": 505.3336860297095,
      "latitude_deg": 1.1029660655896853e-05,
      "longitude_deg": 169.80570903862545,
      "height_km": 510.3575180945687,
      "semi_major_axis_km": 6884.881673679914,
      "eccentricity": 0.00020494,
      "inclination_deg": 97.4214,
      "raan_deg": 179.2098,
      "arg_perigee_deg": 111.9017,
      "mean_anomaly_deg": 248.2436,
      "mean_motion_rev_day": 15.19700621
    },
    {
      "epoch": "2026-04-15T15:33:44.682048Z",
      "apogee_km": 508.1703653444656,
      "perigee_km": 505.2828535466642,
      "latitude_deg": 7.612004875000715e-05,
      "longitude_deg": 103.13173357360225,
      "height_km": 510.31597373602966,
      "semi_major_axis_km": 6884.863609445564,
      "eccentricity": 0.0002097,
      "inclination_deg": 97.4216,
      "raan_deg": 180.3754,
      "arg_perigee_deg": 110.3878,
      "mean_anomaly_deg": 249.7583,
      "mean_motion_rev_day": 15.19706602
    },
    {
      "epoch": "2026-04-16T15:15:58.735008Z",
      "apogee_km": 508.16114502993787,
      "perigee_km": 505.2557402531429,
      "latitude_deg": -3.4115376782063755e-05,
      "longitude_deg": 107.57091103071464,
      "height_km": 510.27231848838977,
      "semi_major_axis_km": 6884.84544264154,
      "eccentricity": 0.000211,
      "inclination_deg": 97.4214,
      "raan_deg": 181.3466,
      "arg_perigee_deg": 109.1897,
      "mean_anomaly_deg": 250.9566,
      "mean_motion_rev_day": 15.19712617
    },
    {
      "epoch": "2026-04-17T16:33:01.397664Z",
      "apogee_km": 508.16106046226014,
      "perigee_km": 505.2194491693681,
      "latitude_deg": 1.025381182113578e-05,
      "longitude_deg": 88.30753239003816,
      "height_km": 510.2476483868129,
      "semi_major_axis_km": 6884.827254815814,
      "eccentricity": 0.00021363,
      "inclination_deg": 97.4213,
      "raan_deg": 182.3827,
      "arg_perigee_deg": 108.6798,
      "mean_anomaly_deg": 251.4669,
      "mean_motion_rev_day": 15.19718639
    }
  ]
}